COSMOS 482 DESCENT CRAFT
1 06073U 72023E   24071.40971784  .00087335  83471-5  17291-3 0  9991
2 06073  52.0020  42.9562 0785226 117.7853 250.4937 14.43089095687438
ISS (ZARYA)
1 25544U 98067A   24069.63738729  .00013857  00000+0  25229-3 0  9992
2 25544  51.6415  88.7723 0005822 345.2173 152.1479 15.49767933443117
NAVSTAR 43 (USA 132)
1 24876U 97035A   24069.06422213  .00000037  00000+0  00000+0 0  9990
2 24876  55.6372 131.0458 0076346  52.3905 308.3780  2.00565406195304
STARLINK-3329           
1 50827U 22001AA  24092.31395453  .00002013  00000+0  14452-3 0  9991
2 50827  53.2153 104.6514 0001419  92.0517 268.0638 15.08846395124888
INMARSAT 3-F2           
1 24307U 96053A   24093.15566837  .00000012  00000+0  00000+0 0  9999
2 24307   8.0143  61.6161 0006701 335.3919  94.9844  0.99979663100896
